{"type": "FeatureCollection", "features": [ {"type": "Feature", "properties": {"norad_id": 34546, "name": "COSMOS 2251 DEB", "group": "cosmos-2251-debris", "lat": 41.68816636438022, "lon": -97.20993740852977, "alt_km": 734.7911124453685, "timestamp": "2025-12-13T08:49:16.086146+00:00", "meta": {"OBJECT_NAME": "COSMOS 2251 DEB", "OBJECT_ID": "1993-036UG", "EPOCH": "2025-12-13T00:24:27.453888", "MEAN_MOTION": 14.45415069, "ECCENTRICITY": 0.00219306, "INCLINATION": 74.0312, "RA_OF_ASC_NODE": 248.6689, "ARG_OF_PERICENTER": 322.362, "MEAN_ANOMALY": 57.8263, "EPHEMERIS_TYPE": 0, "CLASSIFICATION_TYPE": "U", "NORAD_CAT_ID": 34546, "ELEMENT_SET_NO": 999, "REV_AT_EPOCH": 88030, "BSTAR": 0.0010004241, "MEAN_MOTION_DOT": 3.506e-05, "MEAN_MOTION_DDOT": 0}, "tle": {"line1": "1 34546U 93036UG  25347.01698442  .00003506  00000+0  10004-2 0  9998", "line2": "2 34546  74.0312 248.6689 0021930 322.3620  57.8263 14.45415069880306"}}, "geometry": {"type": "Point", "coordinates": [-97.20993740852977, 41.68816636438022]}}, {"type": "Feature", "properties": {"norad_id": 34547, "name": "COSMOS 2251 DEB", "group": "cosmos-2251-debris", "lat": -62.11754248007024, "lon": 66.73467291343897, "alt_km": 665.5298384329408, "timestamp": "2025-12-13T08:49:16.086157+00:00", "meta": {"OBJECT_NAME": "COSMOS 2251 DEB", "OBJECT_ID": "1993-036UH", "EPOCH": "2025-12-11T14:43:32.841120", "MEAN_MOTION": 14.72298648, "ECCENTRICITY": 0.00175909, "INCLINATION": 74.0303, "RA_OF_ASC_NODE": 102.9163, "ARG_OF_PERICENTER": 182.0571, "MEAN_ANOMALY": 178.0532, "EPHEMERIS_TYPE": 0, "CLASSIFICATION_TYPE": "U", "NORAD_CAT_ID": 34547, "ELEMENT_SET_NO": 999, "REV_AT_EPOCH": 88505, "BSTAR": 0.003400892, "MEAN_MOTION_DOT": 0.00021587, "MEAN_MOTION_DDOT": 0}, "tle": {"line1": "1 34547U 93036UH  25345.61357455  .00021587  00000+0  34009-2 0  9999", "line2": "2 34547  74.0303 102.9163 0017590 182.0571 178.0532 14.72298648885053"}}, "geometry": {"type": "Point", "coordinates": [66.73467291343897, -62.11754248007024]}}, {"type": "Feature", "properties": {"norad_id": 34553, "name": "COSMOS 2251 DEB", "group": "cosmos-2251-debris", "lat": 22.68097199777706, "lon": 3.8210918814997887, "alt_km": 704.8301158237164, "timestamp": "2025-12-13T08:49:16.086167+00:00", "meta": {"OBJECT_NAME": "COSMOS 2251 DEB", "OBJECT_ID": "1993-036UP", "EPOCH": "2025-12-13T00:34:06.263040", "MEAN_MOTION": 14.5772838, "ECCENTRICITY": 0.00193038, "INCLINATION": 74.0249, "RA_OF_ASC_NODE": 191.3509, "ARG_OF_PERICENTER": 268.7205, "MEAN_ANOMALY": 243.9365, "EPHEMERIS_TYPE": 0, "CLASSIFICATION_TYPE": "U", "NORAD_CAT_ID": 34553, "ELEMENT_SET_NO": 999, "REV_AT_EPOCH": 88100, "BSTAR": 0.0015438571, "MEAN_MOTION_DOT": 7.047e-05, "MEAN_MOTION_DDOT": 0}, "tle": {"line1": "1 34553U 93036UP  25347.02368360  .00007047  00000+0  15439-2 0  9991", "line2": "2 34553  74.0249 191.3509 0019303 268.7205 243.9365 14.57728380881006"}}, "geometry": {"type": "Point", "coordinates": [3.8210918814997887, 22.68097199777706]}}, {"type": "Feature", "properties": {"norad_id": 34554, "name": "COSMOS 2251 DEB", "group": "cosmos-2251-debris", "lat": -35.95503324873105, "lon": 129.81677850190144, "alt_km": 784.2705735381287, "timestamp": "2025-12-13T08:49:16.086177+00:00", "meta": {"OBJECT_NAME": "COSMOS 2251 DEB", "OBJECT_ID": "1993-036UQ", "EPOCH": "2025-12-12T22:03:19.066752", "MEAN_MOTION": 14.37939496, "ECCENTRICITY": 0.00229934, "INCLINATION": 74.0385, "RA_OF_ASC_NODE": 298.6609, "ARG_OF_PERICENTER": 0.957, "MEAN_ANOMALY": 55.5895, "EPHEMERIS_TYPE": 0, "CLASSIFICATION_TYPE": "U", "NORAD_CAT_ID": 34554, "ELEMENT_SET_NO": 999, "REV_AT_EPOCH": 87758, "BSTAR": 0.0005509245, "MEAN_MOTION_DOT": 1.643e-05, "MEAN_MOTION_DDOT": 0}, "tle": {"line1": "1 34554U 93036UQ  25346.91897068  .00001643  00000+0  55092-3 0  9997", "line2": "2 34554  74.0385 298.6609 0022993   0.9570  55.5895 14.37939496877583"}}, "geometry": {"type": "Point", "coordinates": [129.81677850190144, -35.95503324873105]}}, {"type": "Feature", "properties": {"norad_id": 34556, "name": "COSMOS 2251 DEB", "group": "cosmos-2251-debris", "lat": 67.39173233239434, "lon": -99.87529638299554, "alt_km": 628.1075204504459, "timestamp": "2025-12-13T08:49:16.086188+00:00", "meta": {"OBJECT_NAME": "COSMOS 2251 DEB", "OBJECT_ID": "1993-036US", "EPOCH": "2025-12-12T09:44:10.295808", "MEAN_MOTION": 14.77791296, "ECCENTRICITY": 0.00077848, "INCLINATION": 74.0158, "RA_OF_ASC_NODE": 125.5121, "ARG_OF_PERICENTER": 186.3549, "MEAN_ANOMALY": 204.7388, "EPHEMERIS_TYPE": 0, "CLASSIFICATION_TYPE": "U", "NORAD_CAT_ID": 34556, "ELEMENT_SET_NO": 999, "REV_AT_EPOCH": 88324, "BSTAR": 0.0034481142, "MEAN_MOTION_DOT": 0.00024834, "MEAN_MOTION_DDOT": 0}, "tle": {"line1": "1 34556U 93036US  25346.40567472  .00024834  00000+0  34481-2 0  9991", "line2": "2 34556  74.0158 125.5121 0007784 186.3549 204.7388 14.77791296883249"}}, "geometry": {"type": "Point", "coordinates": [-99.87529638299554, 67.39173233239434]}}, {"type": "Feature", "properties": {"norad_id": 34560, "name": "COSMOS 2251 DEB", "group": "cosmos-2251-debris", "lat": -12.559920284607411, "lon": 137.24912011141248, "alt_km": 664.1703647015574, "timestamp": "2025-12-13T08:49:16.086198+00:00", "meta": {"OBJECT_NAME": "COSMOS 2251 DEB", "OBJECT_ID": "1993-036UW", "EPOCH": "2025-12-12T10:10:53.971392", "MEAN_MOTION": 14.72128553, "ECCENTRICITY": 0.00146169, "INCLINATION": 74.0168, "RA_OF_ASC_NODE": 142.7468, "ARG_OF_PERICENTER": 224.151, "MEAN_ANOMALY": 165.5315, "EPHEMERIS_TYPE": 0, "CLASSIFICATION_TYPE": "U", "NORAD_CAT_ID": 34560, "ELEMENT_SET_NO": 999, "REV_AT_EPOCH": 88247, "BSTAR": 0.0032063543, "MEAN_MOTION_DOT": 0.00020251, "MEAN_MOTION_DDOT": 0}, "tle": {"line1": "1 34560U 93036UW  25346.42423578  .00020251  00000+0  32064-2 0  9990", "line2": "2 34560  74.0168 142.7468 0014616 224.1510 165.5315 14.72128553882474"}}, "geometry": {"type": "Point", "coordinates": [137.24912011141248, -12.559920284607411]}}, {"type": "Feature", "properties": {"norad_id": 34563, "name": "COSMOS 2251 DEB", "group": "cosmos-2251-debris", "lat": 51.179862235485096, "lon": -136.62540217966867, "alt_km": 736.5881317411386, "timestamp": "2025-12-13T08:49:16.086208+00:00", "meta": {"OBJECT_NAME": "COSMOS 2251 DEB", "OBJECT_ID": "1993-036UZ", "EPOCH": "2025-12-12T21:01:49.368576", "MEAN_MOTION": 14.46511069, "ECCENTRICITY": 0.00138854, "INCLINATION": 74.0377, "RA_OF_ASC_NODE": 203.4533, "ARG_OF_PERICENTER": 297.3592, "MEAN_ANOMALY": 79.416, "EPHEMERIS_TYPE": 0, "CLASSIFICATION_TYPE": "U", "NORAD_CAT_ID": 34563, "ELEMENT_SET_NO": 999, "REV_AT_EPOCH": 88199, "BSTAR": 0.00068786465, "MEAN_MOTION_DOT": 2.453e-05, "MEAN_MOTION_DDOT": 0}, "tle": {"line1": "1 34563U 93036UZ  25346.87626584  .00002453  00000+0  68786-3 0  9999", "line2": "2 34563  74.0377 203.4533 0013885 297.3592  79.4160 14.46511069881992"}}, "geometry": {"type": "Point", "coordinates": [-136.62540217966867, 51.179862235485096]}}, {"type": "Feature", "properties": {"norad_id": 34564, "name": "COSMOS 2251 DEB", "group": "cosmos-2251-debris", "lat": 0.1682515779010923, "lon": 56.80232796979781, "alt_km": 771.6505756384568, "timestamp": "2025-12-13T08:49:16.086218+00:00", "meta": {"OBJECT_NAME": "COSMOS 2251 DEB", "OBJECT_ID": "1993-036VA", "EPOCH": "2025-12-12T20:52:29.583840", "MEAN_MOTION": 14.40690777, "ECCENTRICITY": 0.00190355, "INCLINATION": 74.0323, "RA_OF_ASC_NODE": 237.7711, "ARG_OF_PERICENTER": 341.7947, "MEAN_ANOMALY": 137.3992, "EPHEMERIS_TYPE": 0, "CLASSIFICATION_TYPE": "U", "NORAD_CAT_ID": 34564, "ELEMENT_SET_NO": 999, "REV_AT_EPOCH": 88008, "BSTAR": 0.00039435837, "MEAN_MOTION_DOT": 1.236e-05, "MEAN_MOTION_DDOT": 0}, "tle": {"line1": "1 34564U 93036VA  25346.86978685  .00001236  00000+0  39436-3 0  9999", "line2": "2 34564  74.0323 237.7711 0019035 341.7947 137.3992 14.40690777880087"}}, "geometry": {"type": "Point", "coordinates": [56.80232796979781, 0.1682515779010923]}}, {"type": "Feature", "properties": {"norad_id": 34567, "name": "COSMOS 2251 DEB", "group": "cosmos-2251-debris", "lat": -7.391761849689337, "lon": -22.222036028162037, "alt_km": 775.4599984092765, "timestamp": "2025-12-13T08:49:16.086229+00:00", "meta": {"OBJECT_NAME": "COSMOS 2251 DEB", "OBJECT_ID": "1993-036VD", "EPOCH": "2025-12-12T22:25:07.639680", "MEAN_MOTION": 14.2401674, "ECCENTRICITY": 0.00744441, "INCLINATION": 74.0399, "RA_OF_ASC_NODE": 156.4302, "ARG_OF_PERICENTER": 230.6412, "MEAN_ANOMALY": 256.4203, "EPHEMERIS_TYPE": 0, "CLASSIFICATION_TYPE": "U", "NORAD_CAT_ID": 34567, "ELEMENT_SET_NO": 999, "REV_AT_EPOCH": 87127, "BSTAR": 0.0003371743, "MEAN_MOTION_DOT": 7.71e-06, "MEAN_MOTION_DDOT": 0}, "tle": {"line1": "1 34567U 93036VD  25346.93411620  .00000771  00000+0  33717-3 0  9990", "line2": "2 34567  74.0399 156.4302 0074444 230.6412 256.4203 14.24016740871277"}}, "geometry": {"type": "Point", "coordinates": [-22.222036028162037, -7.391761849689337]}}, {"type": "Feature", "properties": {"norad_id": 34569, "name": "COSMOS 2251 DEB", "group": "cosmos-2251-debris", "lat": -4.755210640377868, "lon": -164.36721535416098, "alt_km": 714.2133178859667, "timestamp": "2025-12-13T08:49:16.086239+00:00", "meta": {"OBJECT_NAME": "COSMOS 2251 DEB", "OBJECT_ID": "1993-036VF", "EPOCH": "2025-12-12T21:06:25.492608", "MEAN_MOTION": 14.24753601, "ECCENTRICITY": 0.01573116, "INCLINATION": 73.9904, "RA_OF_ASC_NODE": 197.8836, "ARG_OF_PERICENTER": 26.2401, "MEAN_ANOMALY": 347.368, "EPHEMERIS_TYPE": 0, "CLASSIFICATION_TYPE": "U", "NORAD_CAT_ID": 34569, "ELEMENT_SET_NO": 999, "REV_AT_EPOCH": 86970, "BSTAR": 0.00070179375, "MEAN_MOTION_DOT": 1.834e-05, "MEAN_MOTION_DDOT": 0}, "tle": {"line1": "1 34569U 93036VF  25346.87946172  .00001834  00000+0  70179-3 0  9994", "line2": "2 34569  73.9904 197.8836 0157311  26.2401 347.3680 14.24753601869700"}}, "geometry": {"type": "Point", "coordinates": [-164.36721535416098, -4.755210640377868]}}]}